OBJECT_NAME,OBJECT_ID,EPOCH,MEAN_MOTION,ECCENTRICITY,INCLINATION,RA_OF_ASC_NODE,ARG_OF_PERICENTER,MEAN_ANOMALY,EPHEMERIS_TYPE,CLASSIFICATION_TYPE,NORAD_CAT_ID,ELEMENT_SET_NO,REV_AT_EPOCH,BSTAR,MEAN_MOTION_DOT,MEAN_MOTION_DDOT
SKYTERRA 1,2010-061A,2026-03-01T09:32:44.683296,1.00271277,.0001622,4.8958,50.9139,282.3663,227.7600,0,U,37218,999,5611,0,-.134E-5,0
HYLAS 1,2010-065A,2026-03-01T08:59:48.413760,1.00649309,.0002813,5.3698,74.3440,327.0319,247.9497,0,U,37237,999,580,0,.8E-7,0
INTELSAT 17 (IS-17),2010-065B,2026-03-01T09:19:46.500096,1.00271543,.0002434,0.0140,160.8334,183.8879,20.3940,0,U,37238,999,5216,0,-.2E-6,0
EUTELSAT KA-SAT 9A,2010-069A,2026-03-01T08:50:38.692032,1.00271401,.0002663,0.0566,354.4628,144.7931,161.5657,0,U,37258,999,4292,0,.43E-6,0
HISPASAT 30W-5,2010-070A,2026-03-01T10:35:16.759680,1.00270367,.0003268,0.0272,122.3619,229.8085,295.8658,0,U,37264,999,5210,0,-.235E-5,0
KOREASAT 6,2010-070B,2026-03-01T09:24:12.773664,1.00271979,.0002381,0.0168,123.6768,204.8334,131.5959,0,U,37265,999,5569,0,-.13E-5,0
BEIDOU-2 IGSO-3,2011-013A,2026-02-27T21:48:44.352288,1.00294022,.00350296,62.2642,41.1818,190.8154,358.7681,0,U,37384,999,5456,0,-.154E-5,0
INTELSAT 28 (IS-28),2011-016A,2026-03-01T10:30:38.607840,1.00270727,.0004536,1.5276,84.0238,252.2076,308.9406,0,U,37392,999,5220,0,-.243E-5,0
YAHSAT 1A,2011-016B,2026-03-01T10:58:51.998592,1.00270851,.0003355,0.0035,166.3223,181.4763,28.6543,0,U,37393,999,4132,0,.83E-6,0
SBIRS GEO-1 (USA 230),2011-019A,2026-03-01T10:58:44.510304,1.00272086,.0002282,4.2990,53.0912,288.6976,33.9443,0,U,37481,999,5431,0,.84E-6,0
TELSTAR 14R,2011-021A,2026-03-01T10:25:55.157952,1.00271362,.0002423,0.0428,274.3169,72.8960,265.4666,0,U,37602,999,5475,0,-.298E-5,0
GSAT-8,2011-022A,2026-03-01T10:59:14.463456,1.00270929,.0007634,1.8525,83.1958,213.0759,82.8325,0,U,37605,999,5213,0,.67E-6,0
ST-2,2011-022B,2026-03-01T12:12:12.004128,1.00270560,.0001837,0.0109,122.8536,226.9514,80.5514,0,U,37606,999,5419,0,-.229E-5,0
ZHONGXING-10,2011-026A,2026-03-01T09:25:38.438400,1.00269342,.0002664,0.7674,85.5854,254.1670,46.3321,0,U,37677,999,5391,0,-.206E-5,0
SES-3,2011-035A,2026-03-01T09:33:30.631680,1.00272073,.000356,1.0479,84.3404,258.5812,216.6284,0,U,37748,999,5351,0,-.12E-5,0
KAZSAT-2,2011-035B,2026-03-01T12:12:12.029184,1.00272628,.0000899,0.0091,96.1782,316.5155,16.1653,0,U,37749,999,5231,0,-.216E-5,0
ASTRA 1N,2011-041A,2026-03-01T07:23:57.603840,1.00272229,.0003945,0.0658,13.2153,1.7176,274.3343,0,U,37775,999,4344,0,.101E-5,0
BSAT-3C (JCSAT-110R),2011-041B,2026-03-01T09:32:30.278688,1.00272184,.0000331,0.0239,61.7054,21.7360,328.8323,0,U,37776,999,4938,0,-.369E-5,0
PAKSAT-1R,2011-042A,2026-03-01T08:26:38.539680,1.00276576,.0002335,0.4092,85.8050,299.1475,298.8172,0,U,37779,999,5339,0,.135E-5,0
SES-2,2011-049A,2026-03-01T08:36:20.664000,1.00270288,.0002939,0.0282,75.5950,262.5102,223.1028,0,U,37809,999,5288,0,-.214E-5,0
ARABSAT-5C,2011-049B,2026-03-01T05:44:38.542272,1.00273624,.0002751,0.0585,26.9582,316.2063,282.0228,0,U,37810,999,5295,0,.105E-5,0
EUTELSAT 7 WEST A,2011-051A,2026-03-01T08:59:03.485760,1.00271293,.0001604,0.0672,0.7041,245.3803,40.5204,0,U,37816,999,5279,0,-.79E-6,0
QUETZSAT 1,2011-054A,2026-03-01T10:21:55.541376,1.00271826,.000269,0.0592,286.0184,64.4256,247.2487,0,U,37826,999,4879,0,-.26E-5,0
INTELSAT 18 (IS-18),2011-056A,2026-03-01T08:53:20.164128,1.00268473,.0002055,0.0301,254.5731,80.4342,137.4684,0,U,37834,999,5273,0,.34E-6,0
EUTELSAT 16A,2011-057A,2026-03-01T07:23:05.186688,1.00270370,.0005452,0.0590,342.8532,358.7406,304.2688,0,U,37836,999,625,0,.85E-6,0
VIASAT-1,2011-059A,2026-03-01T11:31:43.524768,1.00277024,.0002021,0.0222,154.9526,214.8217,207.3254,0,U,37843,999,4624,0,0,0
ASIASAT 7,2011-069A,2026-03-01T09:31:15.399264,1.00269824,.0001104,0.0129,198.1880,121.7574,87.5373,0,U,37933,999,4377,0,-.352E-5,0
LUCH-5A,2011-074B,2026-03-01T09:00:34.000128,1.00274828,.0004129,8.4794,75.3923,240.3052,145.6667,0,U,37951,999,5197,0,-.63E-6,0
